CCSDS_OEM_VERS = 1.0
CREATION_DATE  = 2017-05-11T11:22:15
ORIGINATOR     = GMAT USER

META_START
OBJECT_NAME          = MOPSSat_alt_35785_km_RAAN_90_156
OBJECT_ID            = SatId
CENTER_NAME          = Earth
REF_FRAME            = EME2000
TIME_SYSTEM          = UTC
START_TIME           = 2017-01-01T00:00:00.000
USEABLE_START_TIME   = 2017-01-01T00:00:00.000
USEABLE_STOP_TIME    = 2017-01-02T00:00:00.000
STOP_TIME            = 2017-01-02T00:00:00.000
INTERPOLATION        = Lagrange
INTERPOLATION_DEGREE = 7 
META_STOP


                                                                                   

2017-01-01T12:13:20.000   1.641681705842066e+03  -6.318157300036897e+04  -2.921166944886908e+02   1.747673363549619e+00   9.334037314220839e-02  -3.082034651908099e-01
2017-01-01T12:13:30.000   1.659158310078931e+03  -6.318063460932898e+04  -2.951987063040749e+02   1.747647402534032e+00   9.433783417488183e-02  -3.081988835511969e-01
2017-01-01T12:13:40.000   1.676634653490080e+03  -6.317968624363263e+04  -2.982806720887165e+02   1.747621165026977e+00   9.533530254388539e-02  -3.081942531557882e-01
2017-01-01T12:13:50.000   1.694110733124213e+03  -6.317872790321678e+04  -3.013625913221881e+02   1.747594651014254e+00   9.633277831712295e-02  -3.081895740020644e-01
2017-01-01T12:14:00.000   1.711586546079030e+03  -6.317775958801470e+04  -3.044444634927035e+02   1.747567860481431e+00   9.733026156530437e-02  -3.081848460874647e-01
2017-01-01T12:14:10.000   1.729062089412079e+03  -6.317678129796105e+04  -3.075262880813958e+02   1.747540793413984e+00   9.832775235685656e-02  -3.081800694094126e-01
2017-01-01T12:14:20.000   1.746537360535112e+03  -6.317579303297004e+04  -3.106080646318617e+02   1.747513449796692e+00   9.932525078043293e-02  -3.081752439652082e-01
2017-01-01T12:14:30.000   1.764012356819726e+03  -6.317479479295729e+04  -3.136897926806164e+02   1.747485829614240e+00   1.003227569224039e-01  -3.081703697521349e-01
2017-01-01T12:14:40.000   1.781487075686519e+03  -6.317378657783501e+04  -3.167714717728164e+02   1.747457932851089e+00   1.013202708719456e-01  -3.081654467674371e-01
2017-01-01T12:14:50.000   1.798961514378736e+03  -6.317276838752373e+04  -3.198531014223419e+02   1.747429759491798e+00   1.023177927081227e-01  -3.081604750083761e-01
2017-01-01T12:15:00.000   1.816435670130333e+03  -6.317174022194392e+04  -3.229346811414345e+02   1.747401309520793e+00   1.033153225094778e-01  -3.081554544721900e-01
2017-01-01T12:15:10.000   1.833909540165959e+03  -6.317070208101568e+04  -3.260162104406940e+02   1.747372582922355e+00   1.043128603540325e-01  -3.081503851560917e-01
2017-01-01T12:15:20.000   1.851383121532970e+03  -6.316965396466975e+04  -3.290976887994556e+02   1.747343579680935e+00   1.053104063096944e-01  -3.081452670573226e-01
2017-01-01T12:15:30.000   1.868856411327710e+03  -6.316859587283302e+04  -3.321791157056920e+02   1.747314299780739e+00   1.063079604471777e-01  -3.081401001730830e-01
2017-01-01T12:15:40.000   1.886329406604664e+03  -6.316752780543412e+04  -3.352604906399949e+02   1.747284743205895e+00   1.073055228348165e-01  -3.081348845005575e-01
2017-01-01T12:15:50.000   1.903802104777370e+03  -6.316644976237910e+04  -3.383418131462742e+02   1.747254909939770e+00   1.083030935614534e-01  -3.081296200367977e-01
2017-01-01T12:16:00.000   1.921274503216488e+03  -6.316536174357573e+04  -3.414230827608787e+02   1.747224799965648e+00   1.093006727134932e-01  -3.081243067788402e-01
2017-01-01T12:16:10.000   1.938746599353555e+03  -6.316426374892732e+04  -3.445042990308929e+02   1.747194413266562e+00   1.102982603808261e-01  -3.081189447236770e-01
2017-01-01T12:16:20.000   1.956218390401970e+03  -6.316315577834923e+04  -3.475854614649314e+02   1.747163749825741e+00   1.112958566408996e-01  -3.081135338683352e-01
2017-01-01T12:16:30.000   1.973689873587240e+03  -6.316203783175544e+04  -3.506665695737452e+02   1.747132809626248e+00   1.122934615718629e-01  -3.081080742098121e-01
2017-01-01T12:16:40.000   1.991161046093896e+03  -6.316090990906148e+04  -3.537476228608580e+02   1.747101592651055e+00   1.132910752495357e-01  -3.081025657450898e-01
2017-01-01T12:16:50.000   2.008631905086082e+03  -6.315977201018410e+04  -3.568286208261985e+02   1.747070098883038e+00   1.142886977485830e-01  -3.080970084711322e-01
2017-01-01T12:17:00.000   2.026102447717315e+03  -6.315862413503976e+04  -3.599095629678213e+02   1.747038328304931e+00   1.152863291430731e-01  -3.080914023848795e-01
2017-01-01T12:17:10.000   2.043572671151389e+03  -6.315746628354352e+04  -3.629904487855922e+02   1.747006280899301e+00   1.162839695076722e-01  -3.080857474832412e-01
2017-01-01T12:17:20.000   2.061042572572167e+03  -6.315629845560882e+04  -3.660712777829178e+02   1.746973956648532e+00   1.172816189182017e-01  -3.080800437630960e-01
2017-01-01T12:17:30.000   2.078512149204135e+03  -6.315512065114546e+04  -3.691520494703667e+02   1.746941355534784e+00   1.182792774528136e-01  -3.080742912212812e-01
2017-01-01T12:17:40.000   2.095981398259325e+03  -6.315393287006341e+04  -3.722327633563124e+02   1.746908477540083e+00   1.192769451889596e-01  -3.080684898546121e-01
2017-01-01T12:17:50.000   2.113450317167476e+03  -6.315273511225636e+04  -3.753134189875203e+02   1.746875322645875e+00   1.202746222165374e-01  -3.080626396598007e-01
2017-01-01T12:18:00.000   2.130918903297122e+03  -6.315152737762137e+04  -3.783940158999617e+02   1.746841890833567e+00   1.212723086219601e-01  -3.080567406335529e-01
2017-01-01T12:18:10.000   2.148387154061000e+03  -6.315030966605167e+04  -3.814745536374046e+02   1.746808182084329e+00   1.222700044941766e-01  -3.080507927725321e-01
2017-01-01T12:18:20.000   2.165855066507642e+03  -6.314908197746491e+04  -3.845550316793868e+02   1.746774196379875e+00   1.232677099013460e-01  -3.080447960734979e-01
2017-01-01T12:18:30.000   2.183322637729783e+03  -6.314784431177502e+04  -3.876354495132428e+02   1.746739933701682e+00   1.242654249141629e-01  -3.080387505331682e-01
2017-01-01T12:18:40.000   2.200789864758942e+03  -6.314659666889921e+04  -3.907158066155114e+02   1.746705394031187e+00   1.252631495998376e-01  -3.080326561482541e-01
2017-01-01T12:18:50.000   2.218256744844368e+03  -6.314533904873937e+04  -3.937961025011272e+02   1.746670577349272e+00   1.262608840380257e-01  -3.080265129153681e-01
2017-01-01T12:19:00.000   2.235723275222838e+03  -6.314407145119719e+04  -3.968763366828259e+02   1.746635483636681e+00   1.272586283076824e-01  -3.080203208310990e-01
2017-01-01T12:19:10.000   2.253189453171735e+03  -6.314279387617093e+04  -3.999565086805032e+02   1.746600112873929e+00   1.282563824900939e-01  -3.080140798919948e-01
2017-01-01T12:19:20.000   2.270655275988449e+03  -6.314150632355591e+04  -4.030366180175844e+02   1.746564465041319e+00   1.292541466677026e-01  -3.080077900945663e-01
2017-01-01T12:19:30.000   2.288120740980633e+03  -6.314020879324596e+04  -4.061166642193025e+02   1.746528540118983e+00   1.302519209235488e-01  -3.080014514352939e-01
2017-01-01T12:19:40.000   2.305585845445287e+03  -6.313890128513498e+04  -4.091966468090133e+02   1.746492338086918e+00   1.312497053400763e-01  -3.079950639106347e-01
2017-01-01T12:19:50.000   2.323050586658970e+03  -6.313758379911704e+04  -4.122765653064669e+02   1.746455858924995e+00   1.322474999985748e-01  -3.079886275170234e-01
2017-01-01T12:20:00.000   2.340514961857255e+03  -6.313625633508857e+04  -4.153564192241855e+02   1.746419102613022e+00   1.332453049780044e-01  -3.079821422508831e-01
2017-01-01T12:20:10.000   2.357978968287779e+03  -6.313491889294417e+04  -4.184362080768187e+02   1.746382069130620e+00   1.342431203580270e-01  -3.079756081086043e-01
2017-01-01T12:20:20.000   2.375442602980160e+03  -6.313357147259515e+04  -4.215159313405679e+02   1.746344758457741e+00   1.352409462058574e-01  -3.079690250866358e-01
2017-01-01T12:20:30.000   2.392905863024812e+03  -6.313221407394719e+04  -4.245955885023564e+02   1.746307170574049e+00   1.362387825921977e-01  -3.079623931813762e-01
2017-01-01T12:20:40.000   2.410368745469256e+03  -6.313084669690853e+04  -4.276751790415421e+02   1.746269305459149e+00   1.372366295853111e-01  -3.079557123892122e-01
2017-01-01T12:20:50.000   2.427831247719817e+03  -6.312946934135871e+04  -4.307547025007590e+02   1.746231163091714e+00   1.382344872739751e-01  -3.079489827063680e-01
2017-01-01T12:21:00.000   2.445293367140928e+03  -6.312808200717957e+04  -4.338341584152533e+02   1.746192743450355e+00   1.392323557445870e-01  -3.079422041290554e-01
2017-01-01T12:21:10.000   2.462755101145942e+03  -6.312668469424854e+04  -4.369135463288968e+02   1.746154046513422e+00   1.402302350863514e-01  -3.079353766534411e-01
2017-01-01T12:21:20.000   2.480216446970911e+03  -6.312527740245537e+04  -4.399928657542961e+02   1.746115072259477e+00   1.412281253783576e-01  -3.079285002757283e-01
2017-01-01T12:21:30.000   2.497677401842554e+03  -6.312386013168993e+04  -4.430721162024092e+02   1.746075820666953e+00   1.422260266991734e-01  -3.079215749920979e-01
2017-01-01T12:21:40.000   2.515137962978216e+03  -6.312243288184181e+04  -4.461512971825433e+02   1.746036291714140e+00   1.432239391268453e-01  -3.079146007987061e-01
2017-01-01T12:21:50.000   2.532598127418051e+03  -6.312099565281523e+04  -4.492304081727559e+02   1.745996485379607e+00   1.442218627293018e-01  -3.079075776917573e-01
2017-01-01T12:22:00.000   2.550057892251086e+03  -6.311954844450959e+04  -4.523094486597243e+02   1.745956401641649e+00   1.452197975772799e-01  -3.079005056674081e-01
2017-01-01T12:22:10.000   2.567517254526161e+03  -6.311809125682669e+04  -4.553884181230384e+02   1.745916040478500e+00   1.462177437392319e-01  -3.078933847218049e-01
2017-01-01T12:22:20.000   2.584976211645925e+03  -6.311662408963817e+04  -4.584673161046813e+02   1.745875401867425e+00   1.472157013038464e-01  -3.078862148509222e-01
